[
  {
    "OBJECT_NAME": "FENGYUN 3E",
    "OBJECT_ID": "2021-062A",
    "EPOCH": "2025-05-06T02:33:53.781408",
    "MEAN_MOTION": 14.19862807,
    "ECCENTRICITY": 0.000194,
    "INCLINATION": 98.7424,
    "RA_OF_ASC_NODE": 129.2544,
    "ARG_OF_PERICENTER": 145.5209,
    "MEAN_ANOMALY": 214.6094,
    "EPHEMERIS_TYPE": 0,
    "CLASSIFICATION_TYPE": "U",
    "NORAD_CAT_ID": 49008,
    "ELEMENT_SET_NO": 999,
    "REV_AT_EPOCH": 19881,
    "BSTAR": 4.3873e-05,
    "MEAN_MOTION_DOT": 4.9e-07,
    "MEAN_MOTION_DDOT": 0
  },
  {
    "OBJECT_NAME": "GOES 18",
    "OBJECT_ID": "2022-021A",
    "EPOCH": "2025-05-06T04:45:51.626880",
    "MEAN_MOTION": 1.0027127,
    "ECCENTRICITY": 9e-06,
    "INCLINATION": 0.0105,
    "RA_OF_ASC_NODE": 147.2765,
    "ARG_OF_PERICENTER": 286.553,
    "MEAN_ANOMALY": 84.9371,
    "EPHEMERIS_TYPE": 0,
    "CLASSIFICATION_TYPE": "U",
    "NORAD_CAT_ID": 51850,
    "ELEMENT_SET_NO": 999,
    "REV_AT_EPOCH": 1172,
    "BSTAR": 0,
    "MEAN_MOTION_DOT": 9.1e-07,
    "MEAN_MOTION_DDOT": 0
  },
  {
    "OBJECT_NAME": "NOAA 21 (JPSS-2)",
    "OBJECT_ID": "2022-150A",
    "EPOCH": "2025-05-05T20:15:46.424448",
    "MEAN_MOTION": 14.19528971,
    "ECCENTRICITY": 4.95e-05,
    "INCLINATION": 98.7254,
    "RA_OF_ASC_NODE": 65.2239,
    "ARG_OF_PERICENTER": 295.89,
    "MEAN_ANOMALY": 64.2225,
    "EPHEMERIS_TYPE": 0,
    "CLASSIFICATION_TYPE": "U",
    "NORAD_CAT_ID": 54234,
    "ELEMENT_SET_NO": 999,
    "REV_AT_EPOCH": 12875,
    "BSTAR": 8.8787e-05,
    "MEAN_MOTION_DOT": 1.43e-06,
    "MEAN_MOTION_DDOT": 0
  },
  {
    "OBJECT_NAME": "METEOSAT-12 (MTG-I1)",
    "OBJECT_ID": "2022-170C",
    "EPOCH": "2025-05-05T21:12:04.164192",
    "MEAN_MOTION": 1.00271388,
    "ECCENTRICITY": 0.0001055,
    "INCLINATION": 0.6529,
    "RA_OF_ASC_NODE": 36.1304,
    "ARG_OF_PERICENTER": 316.9663,
    "MEAN_ANOMALY": 188.5106,
    "EPHEMERIS_TYPE": 0,
    "CLASSIFICATION_TYPE": "U",
    "NORAD_CAT_ID": 54743,
    "ELEMENT_SET_NO": 999,
    "REV_AT_EPOCH": 889,
    "BSTAR": 0,
    "MEAN_MOTION_DOT": -1.5e-07,
    "MEAN_MOTION_DDOT": 0
  },
  {
    "OBJECT_NAME": "TIANMU-1 03",
    "OBJECT_ID": "2023-039A",
    "EPOCH": "2025-05-06T05:01:07.373568",
    "MEAN_MOTION": 15.34508378,
    "ECCENTRICITY": 0.000536,
    "INCLINATION": 97.4975,
    "RA_OF_ASC_NODE": 284.1797,
    "ARG_OF_PERICENTER": 118.8039,
    "MEAN_ANOMALY": 241.3742,
    "EPHEMERIS_TYPE": 0,
    "CLASSIFICATION_TYPE": "U",
    "NORAD_CAT_ID": 55973,
    "ELEMENT_SET_NO": 999,
    "REV_AT_EPOCH": 11818,
    "BSTAR": 0.00042487,
    "MEAN_MOTION_DOT": 0.00014137,
    "MEAN_MOTION_DDOT": 0
  },
  {
    "OBJECT_NAME": "TIANMU-1 04",
    "OBJECT_ID": "2023-039B",
    "EPOCH": "2025-05-06T02:18:52.193088",
    "MEAN_MOTION": 15.34728872,
    "ECCENTRICITY": 0.0006211,
    "INCLINATION": 97.4903,
    "RA_OF_ASC_NODE": 283.3757,
    "ARG_OF_PERICENTER": 116.1009,
    "MEAN_ANOMALY": 244.0874,
    "EPHEMERIS_TYPE": 0,
    "CLASSIFICATION_TYPE": "U",
    "NORAD_CAT_ID": 55974,
    "ELEMENT_SET_NO": 999,
    "REV_AT_EPOCH": 11816,
    "BSTAR": 0.00043832,
    "MEAN_MOTION_DOT": 0.00014693,
    "MEAN_MOTION_DDOT": 0
  },
  {
    "OBJECT_NAME": "TIANMU-1 05",
    "OBJECT_ID": "2023-039C",
    "EPOCH": "2025-05-06T04:16:43.808448",
    "MEAN_MOTION": 15.34483428,
    "ECCENTRICITY": 0.0004879,
    "INCLINATION": 97.495,
    "RA_OF_ASC_NODE": 283.9126,
    "ARG_OF_PERICENTER": 134.7227,
    "MEAN_ANOMALY": 225.4414,
    "EPHEMERIS_TYPE": 0,
    "CLASSIFICATION_TYPE": "U",
    "NORAD_CAT_ID": 55975,
    "ELEMENT_SET_NO": 999,
    "REV_AT_EPOCH": 11816,
    "BSTAR": 0.00043857,
    "MEAN_MOTION_DOT": 0.00014584,
    "MEAN_MOTION_DDOT": 0
  },
  {
    "OBJECT_NAME": "TIANMU-1 06",
    "OBJECT_ID": "2023-039D",
    "EPOCH": "2025-05-06T02:36:43.993728",
    "MEAN_MOTION": 15.34809904,
    "ECCENTRICITY": 0.0005267,
    "INCLINATION": 97.4964,
    "RA_OF_ASC_NODE": 284.1441,
    "ARG_OF_PERICENTER": 132.1486,
    "MEAN_ANOMALY": 228.0205,
    "EPHEMERIS_TYPE": 0,
    "CLASSIFICATION_TYPE": "U",
    "NORAD_CAT_ID": 55976,
    "ELEMENT_SET_NO": 999,
    "REV_AT_EPOCH": 11816,
    "BSTAR": 0.00044272,
    "MEAN_MOTION_DOT": 0.00014878,
    "MEAN_MOTION_DDOT": 0
  },
  {
    "OBJECT_NAME": "METEOR-M2 3",
    "OBJECT_ID": "2023-091A",
    "EPOCH": "2025-05-06T04:52:06.430080",
    "MEAN_MOTION": 14.23996413,
    "ECCENTRICITY": 0.0002796,
    "INCLINATION": 98.6637,
    "RA_OF_ASC_NODE": 183.1905,
    "ARG_OF_PERICENTER": 272.9071,
    "MEAN_ANOMALY": 87.1788,
    "EPHEMERIS_TYPE": 0,
    "CLASSIFICATION_TYPE": "U",
    "NORAD_CAT_ID": 57166,
    "ELEMENT_SET_NO": 999,
    "REV_AT_EPOCH": 9659,
    "BSTAR": 2.9899e-05,
    "MEAN_MOTION_DOT": 2.5e-07,
    "MEAN_MOTION_DDOT": 0
  },
  {
    "OBJECT_NAME": "TIANMU-1 07",
    "OBJECT_ID": "2023-101A",
    "EPOCH": "2025-05-06T02:10:27.401952",
    "MEAN_MOTION": 15.24673582,
    "ECCENTRICITY": 0.0005907,
    "INCLINATION": 97.3138,
    "RA_OF_ASC_NODE": 180.9714,
    "ARG_OF_PERICENTER": 127.5276,
    "MEAN_ANOMALY": 232.65,
    "EPHEMERIS_TYPE": 0,
    "CLASSIFICATION_TYPE": "U",
    "NORAD_CAT_ID": 57399,
    "ELEMENT_SET_NO": 999,
    "REV_AT_EPOCH": 9950,
    "BSTAR": 0.00034095,
    "MEAN_MOTION_DOT": 8.361e-05,
    "MEAN_MOTION_DDOT": 0
  },
  {
    "OBJECT_NAME": "TIANMU-1 08",
    "OBJECT_ID": "2023-101B",
    "EPOCH": "2025-05-06T04:30:57.443040",
    "MEAN_MOTION": 15.24679874,
    "ECCENTRICITY": 0.0007883,
    "INCLINATION": 97.3126,
    "RA_OF_ASC_NODE": 180.8996,
    "ARG_OF_PERICENTER": 133.4399,
    "MEAN_ANOMALY": 226.7496,
    "EPHEMERIS_TYPE": 0,
    "CLASSIFICATION_TYPE": "U",
    "NORAD_CAT_ID": 57400,
    "ELEMENT_SET_NO": 999,
    "REV_AT_EPOCH": 9951,
    "BSTAR": 0.00032278,
    "MEAN_MOTION_DOT": 7.916e-05,
    "MEAN_MOTION_DDOT": 0
  },
  {
    "OBJECT_NAME": "TIANMU-1 09",
    "OBJECT_ID": "2023-101C",
    "EPOCH": "2025-05-06T04:05:15.857088",
    "MEAN_MOTION": 15.24755856,
    "ECCENTRICITY": 0.000771,
    "INCLINATION": 97.3082,
    "RA_OF_ASC_NODE": 180.5352,
    "ARG_OF_PERICENTER": 130.992,
    "MEAN_ANOMALY": 229.1986,
    "EPHEMERIS_TYPE": 0,
    "CLASSIFICATION_TYPE": "U",
    "NORAD_CAT_ID": 57401,
    "ELEMENT_SET_NO": 999,
    "REV_AT_EPOCH": 9951,
    "BSTAR": 0.00035277,
    "MEAN_MOTION_DOT": 8.678e-05,
    "MEAN_MOTION_DDOT": 0
  },
  {
    "OBJECT_NAME": "TIANMU-1 10",
    "OBJECT_ID": "2023-101D",
    "EPOCH": "2025-05-06T04:51:24.418944",
    "MEAN_MOTION": 15.24584551,
    "ECCENTRICITY": 0.0008958,
    "INCLINATION": 97.3163,
    "RA_OF_ASC_NODE": 181.1849,
    "ARG_OF_PERICENTER": 133.9856,
    "MEAN_ANOMALY": 226.2121,
    "EPHEMERIS_TYPE": 0,
    "CLASSIFICATION_TYPE": "U",
    "NORAD_CAT_ID": 57402,
    "ELEMENT_SET_NO": 999,
    "REV_AT_EPOCH": 9951,
    "BSTAR": 0.00033309,
    "MEAN_MOTION_DOT": 8.201e-05,
    "MEAN_MOTION_DDOT": 1.3522e-08
  },
  {
    "OBJECT_NAME": "FENGYUN 3F",
    "OBJECT_ID": "2023-111A",
    "EPOCH": "2025-05-06T04:10:58.973952",
    "MEAN_MOTION": 14.200367,
    "ECCENTRICITY": 7.14e-05,
    "INCLINATION": 98.728,
    "RA_OF_ASC_NODE": 197.7017,
    "ARG_OF_PERICENTER": 141.628,
    "MEAN_ANOMALY": 218.4948,
    "EPHEMERIS_TYPE": 0,
    "CLASSIFICATION_TYPE": "U",
    "NORAD_CAT_ID": 57490,
    "ELEMENT_SET_NO": 999,
    "REV_AT_EPOCH": 9110,
    "BSTAR": 7.3906e-05,
    "MEAN_MOTION_DOT": 1.13e-06,
    "MEAN_MOTION_DDOT": 0
  }
]