FENGYUN 3E              
1 49008U 21062A   25126.10687247  .00000049  00000+0  43873-4 0  9994
2 49008  98.7424 129.2544 0001940 145.5209 214.6094 14.19862807198813
GOES 18                 
1 51850U 22021A   25126.19851420  .00000091  00000+0  00000+0 0  9990
2 51850   0.0105 147.2765 0000090 286.5530  84.9371  1.00271270 11720
NOAA 21 (JPSS-2)        
1 54234U 22150A   25125.84428732  .00000143  00000+0  88787-4 0  9990
2 54234  98.7254  65.2239 0000495 295.8900  64.2225 14.19528971128754
METEOSAT-12 (MTG-I1)    
1 54743U 22170C   25125.88338153 -.00000015  00000+0  00000+0 0  9994
2 54743   0.6529  36.1304 0001055 316.9663 188.5106  1.00271388  8893
TIANMU-1 03             
1 55973U 23039A   25126.20911312  .00014137  00000+0  42487-3 0  9994
2 55973  97.4975 284.1797 0005360 118.8039 241.3742 15.34508378118180
TIANMU-1 04             
1 55974U 23039B   25126.09643742  .00014693  00000+0  43832-3 0  9993
2 55974  97.4903 283.3757 0006211 116.1009 244.0874 15.34728872118160
TIANMU-1 05             
1 55975U 23039C   25126.17828482  .00014584  00000+0  43857-3 0  9995
2 55975  97.4950 283.9126 0004879 134.7227 225.4414 15.34483428118163
TIANMU-1 06             
1 55976U 23039D   25126.10884252  .00014878  00000+0  44272-3 0  9994
2 55976  97.4964 284.1441 0005267 132.1486 228.0205 15.34809904118161
METEOR-M2 3             
1 57166U 23091A   25126.20285220  .00000025  00000+0  29899-4 0  9994
2 57166  98.6637 183.1905 0002796 272.9071  87.1788 14.23996413 96595
TIANMU-1 07             
1 57399U 23101A   25126.09059493  .00008361  00000+0  34095-3 0  9996
2 57399  97.3138 180.9714 0005907 127.5276 232.6500 15.24673582 99501
TIANMU-1 08             
1 57400U 23101B   25126.18816485  .00007916  00000+0  32278-3 0  9997
2 57400  97.3126 180.8996 0007883 133.4399 226.7496 15.24679874 99518
TIANMU-1 09             
1 57401U 23101C   25126.17032242  .00008678  00000+0  35277-3 0  9996
2 57401  97.3082 180.5352 0007710 130.9920 229.1986 15.24755856 99510
TIANMU-1 10             
1 57402U 23101D   25126.20236596  .00008201  13522-7  33309-3 0  9996
2 57402  97.3163 181.1849 0008958 133.9856 226.2121 15.24584551 99516
FENGYUN 3F              
1 57490U 23111A   25126.17429368  .00000113  00000+0  73906-4 0  9992
2 57490  98.7280 197.7017 0000714 141.6280 218.4948 14.20036700 91107
